{
  "norad_id": 60118,
  "name": "STARLINK-11177 [DTC]",
  "history": [
    {
      "epoch": "2026-04-15T05:46:39.314784Z",
      "apogee_km": 360.593921695915,
      "perigee_km": 358.8663325645184,
      "latitude_deg": -5.994705707855549e-05,
      "longitude_deg": 111.04001000820323,
      "height_km": 360.63575466623956,
      "semi_major_axis_km": 6737.867127130216,
      "eccentricity": 0.0001282,
      "inclination_deg": 53.1581,
      "raan_deg": 41.1095,
      "arg_perigee_deg": 89.4969,
      "mean_anomaly_deg": 270.6195,
      "mean_motion_rev_day": 15.6970882
    },
    {
      "epoch": "2026-04-16T18:27:03.374784Z",
      "apogee_km": 360.45222642476165,
      "perigee_km": 358.96046790769924,
      "latitude_deg": 2.541979542223295e-05,
      "longitude_deg": -88.09899438456362,
      "height_km": 360.60484633754277,
      "semi_major_axis_km": 6737.84334716623,
      "eccentricity": 0.0001107,
      "inclination_deg": 53.159,
      "raan_deg": 33.5768,
      "arg_perigee_deg": 88.8446,
      "mean_anomaly_deg": 271.2699,
      "mean_motion_rev_day": 15.6971713
    },
    {
      "epoch": "2026-04-17T05:08:50.689248Z",
      "apogee_km": 360.23051661760655,
      "perigee_km": 359.13656407467533,
      "latitude_deg": -4.035803169072728e-05,
      "longitude_deg": 108.81712502690293,
      "height_km": 360.15485327130244,
      "semi_major_axis_km": 6737.820540346141,
      "eccentricity": 8.118e-05,
      "inclination_deg": 53.1597,
      "raan_deg": 31.3794,
      "arg_perigee_deg": 324.3164,
      "mean_anomaly_deg": 35.7799,
      "mean_motion_rev_day": 15.697251
    },
    {
      "epoch": "2026-04-18T11:42:31.407264Z",
      "apogee_km": 360.4311420330132,
      "perigee_km": 359.0275097200056,
      "latitude_deg": 6.297225316845276e-05,
      "longitude_deg": 2.8659360851196696,
      "height_km": 360.6347524226175,
      "semi_major_axis_km": 6737.866325876509,
      "eccentricity": 0.00010416,
      "inclination_deg": 53.1599,
      "raan_deg": 25.1029,
      "arg_perigee_deg": 89.3232,
      "mean_anomaly_deg": 270.7906,
      "mean_motion_rev_day": 15.697091
    },
    {
      "epoch": "2026-04-19T04:31:01.294752Z",
      "apogee_km": 360.45512475091255,
      "perigee_km": 358.92051776962126,
      "latitude_deg": 6.507879057634113e-05,
      "longitude_deg": 106.59831377537115,
      "height_km": 360.56206400245753,
      "semi_major_axis_km": 6737.824821260267,
      "eccentricity": 0.00011388,
      "inclination_deg": 53.16,
      "raan_deg": 21.6501,
      "arg_perigee_deg": 87.0595,
      "mean_anomaly_deg": 273.0554,
      "mean_motion_rev_day": 15.69723604
    },
    {
      "epoch": "2026-04-20T11:04:44.098464Z",
      "apogee_km": 360.7618635830195,
      "perigee_km": 358.72904444664255,
      "latitude_deg": -8.419550000278714e-06,
      "longitude_deg": 0.63507595925532,
      "height_km": 361.0269398194674,
      "semi_major_axis_km": 6737.882454014831,
      "eccentricity": 0.00015085,
      "inclination_deg": 53.1609,
      "raan_deg": 15.3704,
      "arg_perigee_deg": 111.2361,
      "mean_anomaly_deg": 248.8818,
      "mean_motion_rev_day": 15.69703464
    },
    {
      "epoch": "2026-04-21T20:41:46.804128Z",
      "apogee_km": 361.2080032429185,
      "perigee_km": 358.7162541851194,
      "latitude_deg": 3.486148452764899e-05,
      "longitude_deg": -151.90888715462722,
      "height_km": 361.4972322974185,
      "semi_major_axis_km": 6738.099128714019,
      "eccentricity": 0.0001849,
      "inclination_deg": 53.1597,
      "raan_deg": 8.4683,
      "arg_perigee_deg": 119.9619,
      "mean_anomaly_deg": 240.1583,
      "mean_motion_rev_day": 15.6962775
    },
    {
      "epoch": "2026-04-21T23:45:09.558144Z",
      "apogee_km": 360.7649237581909,
      "perigee_km": 358.76511443892105,
      "latitude_deg": -5.433414862146528e-08,
      "longitude_deg": 161.49105947476036,
      "height_km": 360.7848649071811,
      "semi_major_axis_km": 6737.902019098556,
      "eccentricity": 0.0001484,
      "inclination_deg": 53.1615,
      "raan_deg": 7.8386,
      "arg_perigee_deg": 96.1168,
      "mean_anomaly_deg": 264.0019,
      "mean_motion_rev_day": 15.69696627
    },
    {
      "epoch": "2026-04-23T01:43:45.966720Z",
      "apogee_km": 360.4628435244085,
      "perigee_km": 358.94831126986173,
      "latitude_deg": -1.0382972084554304e-05,
      "longitude_deg": 125.43671834203018,
      "height_km": 360.5039835583209,
      "semi_major_axis_km": 6737.842577397135,
      "eccentricity": 0.00011239,
      "inclination_deg": 53.1596,
      "raan_deg": 2.5028,
      "arg_perigee_deg": 81.2498,
      "mean_anomaly_deg": 278.8647,
      "mean_motion_rev_day": 15.69717399
    },
    {
      "epoch": "2026-04-24T20:30:54.955008Z",
      "apogee_km": 360.53347633505564,
      "perigee_km": 358.9419903230446,
      "latitude_deg": 3.727805488670813e-05,
      "longitude_deg": -166.8973513740693,
      "height_km": 360.3724415465825,
      "semi_major_axis_km": 6737.87473332905,
      "eccentricity": 0.0001181,
      "inclination_deg": 53.1595,
      "raan_deg": 353.7133,
      "arg_perigee_deg": 69.4838,
      "mean_anomaly_deg": 290.6307,
      "mean_motion_rev_day": 15.69706162
    },
    {
      "epoch": "2026-04-25T19:26:10.034304Z",
      "apogee_km": 360.2711719604322,
      "perigee_km": 359.1985027639239,
      "latitude_deg": 4.8290219557384696e-06,
      "longitude_deg": -156.35983220702238,
      "height_km": 360.5653541313111,
      "semi_major_axis_km": 6737.871837362178,
      "eccentricity": 7.96e-05,
      "inclination_deg": 53.1591,
      "raan_deg": 349.005,
      "arg_perigee_deg": 81.0479,
      "mean_anomaly_deg": 279.0629,
      "mean_motion_rev_day": 15.69707174
    },
    {
      "epoch": "2026-04-26T21:24:47.781216Z",
      "apogee_km": 360.25998224209434,
      "perigee_km": 359.2195193142388,
      "latitude_deg": 1.5126884040469483e-05,
      "longitude_deg": 167.58185342896843,
      "height_km": 360.7503060577434,
      "semi_major_axis_km": 6737.876750778167,
      "eccentricity": 7.721e-05,
      "inclination_deg": 53.1585,
      "raan_deg": 343.6708,
      "arg_perigee_deg": 100.7029,
      "mean_anomaly_deg": 259.4076,
      "mean_motion_rev_day": 15.69705457
    },
    {
      "epoch": "2026-04-27T20:20:03.336576Z",
      "apogee_km": 360.23419551305415,
      "perigee_km": 359.27067732364594,
      "latitude_deg": -5.035459419550663e-05,
      "longitude_deg": 178.11855988787258,
      "height_km": 360.434905925989,
      "semi_major_axis_km": 6737.88943641835,
      "eccentricity": 7.15e-05,
      "inclination_deg": 53.1583,
      "raan_deg": 338.9637,
      "arg_perigee_deg": 61.262,
      "mean_anomaly_deg": 298.8469,
      "mean_motion_rev_day": 15.69701024
    },
    {
      "epoch": "2026-04-28T20:46:59.793312Z",
      "apogee_km": 360.2527105052168,
      "perigee_km": 359.22585815948423,
      "latitude_deg": 3.7652801632124404e-06,
      "longitude_deg": 165.35767914913285,
      "height_km": 360.5687340843685,
      "semi_major_axis_km": 6737.87628433235,
      "eccentricity": 7.62e-05,
      "inclination_deg": 53.1583,
      "raan_deg": 333.9421,
      "arg_perigee_deg": 80.5291,
      "mean_anomaly_deg": 279.5813,
      "mean_motion_rev_day": 15.6970562
    },
    {
      "epoch": "2026-04-29T19:42:15.530976Z",
      "apogee_km": 360.2975846515001,
      "perigee_km": 359.2181738918416,
      "latitude_deg": -2.748345131396794e-05,
      "longitude_deg": 175.89164898072835,
      "height_km": 360.6294934582339,
      "semi_major_axis_km": 6737.894879271671,
      "eccentricity": 8.01e-05,
      "inclination_deg": 53.1585,
      "raan_deg": 329.233,
      "arg_perigee_deg": 85.5069,
      "mean_anomaly_deg": 274.604,
      "mean_motion_rev_day": 15.69699122
    },
    {
      "epoch": "2026-04-30T14:02:26.751840Z",
      "apogee_km": 360.15439253135446,
      "perigee_km": 359.2625713033676,
      "latitude_deg": 4.004576869212337e-05,
      "longitude_deg": -103.67620578947621,
      "height_km": 360.72946255193455,
      "semi_major_axis_km": 6737.845481917361,
      "eccentricity": 6.618e-05,
      "inclination_deg": 53.1582,
      "raan_deg": 325.4649,
      "arg_perigee_deg": 103.8739,
      "mean_anomaly_deg": 256.2353,
      "mean_motion_rev_day": 15.69716384
    },
    {
      "epoch": "2026-05-02T05:46:14.270016Z",
      "apogee_km": 360.09590259544984,
      "perigee_km": 359.27523580651996,
      "latitude_deg": 1.5936804068539054e-05,
      "longitude_deg": 10.584434148898358,
      "height_km": 360.536407597053,
      "semi_major_axis_km": 6737.822569200985,
      "eccentricity": 6.09e-05,
      "inclination_deg": 53.1595,
      "raan_deg": 317.3052,
      "arg_perigee_deg": 81.1084,
      "mean_anomaly_deg": 279.0003,
      "mean_motion_rev_day": 15.69724391
    },
    {
      "epoch": "2026-05-03T16:54:55.495008Z",
      "apogee_km": 360.38779754652205,
      "perigee_km": 358.46354964694274,
      "latitude_deg": -1.0861187369593822e-05,
      "longitude_deg": -165.25160545072475,
      "height_km": 359.98747953708244,
      "semi_major_axis_km": 6737.562673596732,
      "eccentricity": 0.0001428,
      "inclination_deg": 53.159,
      "raan_deg": 310.0843,
      "arg_perigee_deg": 68.5729,
      "mean_anomaly_deg": 291.5441,
      "mean_motion_rev_day": 15.69815218
    },
    {
      "epoch": "2026-05-04T18:53:35.616192Z",
      "apogee_km": 360.3687418317204,
      "perigee_km": 359.1074116173568,
      "latitude_deg": -1.0898112693497066e-05,
      "longitude_deg": 158.681748414771,
      "height_km": 360.53204378073355,
      "semi_major_axis_km": 6737.875076724538,
      "eccentricity": 9.36e-05,
      "inclination_deg": 53.1597,
      "raan_deg": 304.7517,
      "arg_perigee_deg": 79.0402,
      "mean_anomaly_deg": 281.0721,
      "mean_motion_rev_day": 15.69706042
    }
  ]
}